{
  "type": "FeatureCollection",
  "features": [
    {
      "type": "Feature",
      "properties": {
        "norad_id": 31351,
        "name": "FENGYUN 1C DEB",
        "group": "fengyun-1c-debris",
        "lat": 79.03650262811547,
        "lon": -66.37066228961649,
        "alt_km": 838.7490466480949,
        "timestamp": "2025-12-26T06:43:29.793628+00:00",
        "meta_object_name": "FENGYUN 1C DEB",
        "meta_object_id": "1999-025BRF",
        "meta_epoch": "2025-12-22T10:10:17.163264",
        "meta_mean_motion": 14.06949106,
        "meta_eccentricity": 0.00933431,
        "meta_inclination": 98.7956,
        "meta_ra_of_asc_node": 342.9353,
        "meta_arg_of_pericenter": 24.2832,
        "meta_mean_anomaly": 336.2694,
        "meta_ephemeris_type": 0,
        "meta_classification_type": "U",
        "meta_norad_cat_id": 31351,
        "meta_element_set_no": 999,
        "meta_rev_at_epoch": 61511,
        "meta_bstar": 0.0002975243,
        "meta_mean_motion_dot": 4.73e-06,
        "meta_mean_motion_ddot": 0,
        "tle_line1": "1 31351U 99025BRF 25356.42380976  .00000473  00000+0  29752-3 0  9999",
        "tle_line2": "2 31351  98.7956 342.9353 0093343  24.2832 336.2694 14.06949106615118"
      },
      "geometry": {
        "type": "Point",
        "coordinates": [
          -66.37066228961649,
          79.03650262811547
        ]
      }
    },
    {
      "type": "Feature",
      "properties": {
        "norad_id": 31353,
        "name": "FENGYUN 1C DEB",
        "group": "fengyun-1c-debris",
        "lat": -29.569686985840622,
        "lon": -68.84771657027545,
        "alt_km": 708.5715290217086,
        "timestamp": "2025-12-26T06:43:29.793638+00:00",
        "meta_object_name": "FENGYUN 1C DEB",
        "meta_object_id": "1999-025BRH",
        "meta_epoch": "2025-12-23T01:36:34.682976",
        "meta_mean_motion": 14.29884822,
        "meta_eccentricity": 0.02291012,
        "meta_inclination": 98.9918,
        "meta_ra_of_asc_node": 282.6778,
        "meta_arg_of_pericenter": 37.6194,
        "meta_mean_anomaly": 324.0767,
        "meta_ephemeris_type": 0,
        "meta_classification_type": "U",
        "meta_norad_cat_id": 31353,
        "meta_element_set_no": 999,
        "meta_rev_at_epoch": 96732,
        "meta_bstar": 0.000644123,
        "meta_mean_motion_dot": 2.152e-05,
        "meta_mean_motion_ddot": 0,
        "tle_line1": "1 31353U 99025BRH 25357.06706809  .00002152  00000+0  64412-3 0  9997",
        "tle_line2": "2 31353  98.9918 282.6778 0229101  37.6194 324.0767 14.29884822967320"
      },
      "geometry": {
        "type": "Point",
        "coordinates": [
          -68.84771657027545,
          -29.569686985840622
        ]
      }
    },
    {
      "type": "Feature",
      "properties": {
        "norad_id": 31357,
        "name": "FENGYUN 1C DEB",
        "group": "fengyun-1c-debris",
        "lat": 52.220210030286125,
        "lon": 19.61374310731154,
        "alt_km": 858.5034775274744,
        "timestamp": "2025-12-26T06:43:29.793648+00:00",
        "meta_object_name": "FENGYUN 1C DEB",
        "meta_object_id": "1999-025BRM",
        "meta_epoch": "2025-12-22T13:28:45.764256",
        "meta_mean_motion": 14.18528596,
        "meta_eccentricity": 0.00488119,
        "meta_inclination": 98.6099,
        "meta_ra_of_asc_node": 27.2767,
        "meta_arg_of_pericenter": 263.7282,
        "meta_mean_anomaly": 250.323,
        "meta_ephemeris_type": 0,
        "meta_classification_type": "U",
        "meta_norad_cat_id": 31357,
        "meta_element_set_no": 999,
        "meta_rev_at_epoch": 96843,
        "meta_bstar": 3.8347545e-05,
        "meta_mean_motion_dot": 3.7e-07,
        "meta_mean_motion_ddot": 0,
        "tle_line1": "1 31357U 99025BRM 25356.56164079  .00000037  00000+0  38348-4 0  9992",
        "tle_line2": "2 31357  98.6099  27.2767 0048811 263.7282 250.3230 14.18528596968439"
      },
      "geometry": {
        "type": "Point",
        "coordinates": [
          19.61374310731154,
          52.220210030286125
        ]
      }
    },
    {
      "type": "Feature",
      "properties": {
        "norad_id": 31358,
        "name": "FENGYUN 1C DEB",
        "group": "fengyun-1c-debris",
        "lat": -69.65106454920196,
        "lon": 90.79122614124695,
        "alt_km": 533.356423829573,
        "timestamp": "2025-12-26T06:43:29.793658+00:00",
        "meta_object_name": "FENGYUN 1C DEB",
        "meta_object_id": "1999-025BRN",
        "meta_epoch": "2025-12-24T18:55:57.832320",
        "meta_mean_motion": 15.22563646,
        "meta_eccentricity": 0.00436516,
        "meta_inclination": 98.9084,
        "meta_ra_of_asc_node": 294.0441,
        "meta_arg_of_pericenter": 79.5177,
        "meta_mean_anomaly": 281.0969,
        "meta_ephemeris_type": 0,
        "meta_classification_type": "U",
        "meta_norad_cat_id": 31358,
        "meta_element_set_no": 999,
        "meta_rev_at_epoch": 97753,
        "meta_bstar": 0.0082771119,
        "meta_mean_motion_dot": 0.00202216,
        "meta_mean_motion_ddot": 0,
        "tle_line1": "1 31358U 99025BRN 25358.78886380  .00202216  00000+0  82771-2 0  9995",
        "tle_line2": "2 31358  98.9084 294.0441 0043651  79.5177 281.0969 15.22563646977535"
      },
      "geometry": {
        "type": "Point",
        "coordinates": [
          90.79122614124695,
          -69.65106454920196
        ]
      }
    },
    {
      "type": "Feature",
      "properties": {
        "norad_id": 31361,
        "name": "FENGYUN 1C DEB",
        "group": "fengyun-1c-debris",
        "lat": 20.474524379120833,
        "lon": 158.30713777637988,
        "alt_km": 852.621706920645,
        "timestamp": "2025-12-26T06:43:29.793668+00:00",
        "meta_object_name": "FENGYUN 1C DEB",
        "meta_object_id": "1999-025BRR",
        "meta_epoch": "2025-12-24T04:51:37.905120",
        "meta_mean_motion": 14.17751491,
        "meta_eccentricity": 0.00458271,
        "meta_inclination": 98.552,
        "meta_ra_of_asc_node": 333.0859,
        "meta_arg_of_pericenter": 38.3014,
        "meta_mean_anomaly": 322.1402,
        "meta_ephemeris_type": 0,
        "meta_classification_type": "U",
        "meta_norad_cat_id": 31361,
        "meta_element_set_no": 999,
        "meta_rev_at_epoch": 96726,
        "meta_bstar": 0.00013339901,
        "meta_mean_motion_dot": 2.33e-06,
        "meta_mean_motion_ddot": 0,
        "tle_line1": "1 31361U 99025BRR 25358.20252205  .00000233  00000+0  13340-3 0  9991",
        "tle_line2": "2 31361  98.5520 333.0859 0045827  38.3014 322.1402 14.17751491967265"
      },
      "geometry": {
        "type": "Point",
        "coordinates": [
          158.30713777637988,
          20.474524379120833
        ]
      }
    },
    {
      "type": "Feature",
      "properties": {
        "norad_id": 31362,
        "name": "FENGYUN 1C DEB",
        "group": "fengyun-1c-debris",
        "lat": 60.01797476281554,
        "lon": -170.42349784529657,
        "alt_km": 821.4448812330529,
        "timestamp": "2025-12-26T06:43:29.793678+00:00",
        "meta_object_name": "FENGYUN 1C DEB",
        "meta_object_id": "1999-025BRS",
        "meta_epoch": "2025-12-25T20:00:11.166048",
        "meta_mean_motion": 14.1738766,
        "meta_eccentricity": 0.00191533,
        "meta_inclination": 98.6532,
        "meta_ra_of_asc_node": 353.8369,
        "meta_arg_of_pericenter": 59.9167,
        "meta_mean_anomaly": 300.3904,
        "meta_ephemeris_type": 0,
        "meta_classification_type": "U",
        "meta_norad_cat_id": 31362,
        "meta_element_set_no": 999,
        "meta_rev_at_epoch": 96761,
        "meta_bstar": 0.00016907424,
        "meta_mean_motion_dot": 3e-06,
        "meta_mean_motion_ddot": 0,
        "tle_line1": "1 31362U 99025BRS 25359.83346257  .00000300  00000+0  16907-3 0  9990",
        "tle_line2": "2 31362  98.6532 353.8369 0019153  59.9167 300.3904 14.17387660967614"
      },
      "geometry": {
        "type": "Point",
        "coordinates": [
          -170.42349784529657,
          60.01797476281554
        ]
      }
    },
    {
      "type": "Feature",
      "properties": {
        "norad_id": 31364,
        "name": "FENGYUN 1C DEB",
        "group": "fengyun-1c-debris",
        "lat": 8.729329843821793,
        "lon": 118.9962462111677,
        "alt_km": 858.220586681683,
        "timestamp": "2025-12-26T06:43:29.793688+00:00",
        "meta_object_name": "FENGYUN 1C DEB",
        "meta_object_id": "1999-025BRU",
        "meta_epoch": "2025-12-25T18:48:06.900480",
        "meta_mean_motion": 14.14790679,
        "meta_eccentricity": 0.00922344,
        "meta_inclination": 99.262,
        "meta_ra_of_asc_node": 119.9167,
        "meta_arg_of_pericenter": 112.591,
        "meta_mean_anomaly": 248.5052,
        "meta_ephemeris_type": 0,
        "meta_classification_type": "U",
        "meta_norad_cat_id": 31364,
        "meta_element_set_no": 999,
        "meta_rev_at_epoch": 95061,
        "meta_bstar": 0.0028455416,
        "meta_mean_motion_dot": 5.673e-05,
        "meta_mean_motion_ddot": 0,
        "tle_line1": "1 31364U 99025BRU 25359.78341320  .00005673  00000+0  28455-2 0  9990",
        "tle_line2": "2 31364  99.2620 119.9167 0092234 112.5910 248.5052 14.14790679950615"
      },
      "geometry": {
        "type": "Point",
        "coordinates": [
          118.9962462111677,
          8.729329843821793
        ]
      }
    }
  ]
}